{"type": "FeatureCollection", "features": [ {"type": "Feature", "properties": {"norad_id": 45358, "name": "COSMOS 2545 (760)", "group": "glo-ops", "lat": -4.498824188998381, "lon": -43.235025077785615, "alt_km": 19139.370644224877, "timestamp": "2025-12-13T20:38:51.265760+00:00", "meta": {"OBJECT_NAME": "COSMOS 2545 (760)", "OBJECT_ID": "2020-018A", "EPOCH": "2025-12-10T13:58:04.872576", "MEAN_MOTION": 2.13102273, "ECCENTRICITY": 0.00118432, "INCLINATION": 64.471, "RA_OF_ASC_NODE": 319.0455, "ARG_OF_PERICENTER": 248.8319, "MEAN_ANOMALY": 111.0396, "EPHEMERIS_TYPE": 0, "CLASSIFICATION_TYPE": "U", "NORAD_CAT_ID": 45358, "ELEMENT_SET_NO": 999, "REV_AT_EPOCH": 4464, "BSTAR": 0, "MEAN_MOTION_DOT": -5.2e-07, "MEAN_MOTION_DDOT": 0}, "tle": {"line1": "1 45358U 20018A   25344.58200084 -.00000052  00000+0  00000+0 0  9997", "line2": "2 45358  64.4710 319.0455 0011843 248.8319 111.0396  2.13102273 44648"}}, "geometry": {"type": "Point", "coordinates": [-43.235025077785615, -4.498824188998381]}}, {"type": "Feature", "properties": {"norad_id": 46805, "name": "COSMOS 2547 (705K)", "group": "glo-ops", "lat": -27.447417784966643, "lon": 32.950923576145954, "alt_km": 19118.45533544181, "timestamp": "2025-12-13T20:38:51.265771+00:00", "meta": {"OBJECT_NAME": "COSMOS 2547 (705K)", "OBJECT_ID": "2020-075A", "EPOCH": "2025-12-08T21:25:56.196192", "MEAN_MOTION": 2.13099854, "ECCENTRICITY": 0.00063847, "INCLINATION": 64.5958, "RA_OF_ASC_NODE": 198.8249, "ARG_OF_PERICENTER": 229.7163, "MEAN_ANOMALY": 130.3027, "EPHEMERIS_TYPE": 0, "CLASSIFICATION_TYPE": "U", "NORAD_CAT_ID": 46805, "ELEMENT_SET_NO": 999, "REV_AT_EPOCH": 3985, "BSTAR": 0, "MEAN_MOTION_DOT": 4.5e-07, "MEAN_MOTION_DDOT": 0}, "tle": {"line1": "1 46805U 20075A   25342.89301153  .00000045  00000+0  00000+0 0  9990", "line2": "2 46805  64.5958 198.8249 0006384 229.7163 130.3027  2.13099854 39856"}}, "geometry": {"type": "Point", "coordinates": [32.950923576145954, -27.447417784966643]}}, {"type": "Feature", "properties": {"norad_id": 52984, "name": "COSMOS 2557 (706K)", "group": "glo-ops", "lat": 63.71527051373331, "lon": 36.96164907351734, "alt_km": 19157.142671073954, "timestamp": "2025-12-13T20:38:51.265783+00:00", "meta": {"OBJECT_NAME": "COSMOS 2557 (706K)", "OBJECT_ID": "2022-075A", "EPOCH": "2025-12-07T04:21:00.419904", "MEAN_MOTION": 2.13101754, "ECCENTRICITY": 0.00137049, "INCLINATION": 64.4129, "RA_OF_ASC_NODE": 321.247, "ARG_OF_PERICENTER": 276.9, "MEAN_ANOMALY": 82.939, "EPHEMERIS_TYPE": 0, "CLASSIFICATION_TYPE": "U", "NORAD_CAT_ID": 52984, "ELEMENT_SET_NO": 999, "REV_AT_EPOCH": 2662, "BSTAR": 0, "MEAN_MOTION_DOT": -5.2e-07, "MEAN_MOTION_DDOT": 0}, "tle": {"line1": "1 52984U 22075A   25341.18125486 -.00000052  00000+0  00000+0 0  9990", "line2": "2 52984  64.4129 321.2470 0013704 276.9000  82.9390  2.13101754 26625"}}, "geometry": {"type": "Point", "coordinates": [36.96164907351734, 63.71527051373331]}}, {"type": "Feature", "properties": {"norad_id": 54031, "name": "COSMOS 2559 (707K)", "group": "glo-ops", "lat": -37.726596291586695, "lon": 162.87704873896215, "alt_km": 19108.799842147007, "timestamp": "2025-12-13T20:38:51.265794+00:00", "meta": {"OBJECT_NAME": "COSMOS 2559 (707K)", "OBJECT_ID": "2022-130A", "EPOCH": "2025-12-13T02:25:11.955648", "MEAN_MOTION": 2.13101359, "ECCENTRICITY": 0.00117976, "INCLINATION": 64.3821, "RA_OF_ASC_NODE": 321.1284, "ARG_OF_PERICENTER": 192.3956, "MEAN_ANOMALY": 167.5755, "EPHEMERIS_TYPE": 0, "CLASSIFICATION_TYPE": "U", "NORAD_CAT_ID": 54031, "ELEMENT_SET_NO": 999, "REV_AT_EPOCH": 2472, "BSTAR": 0, "MEAN_MOTION_DOT": -6.2e-07, "MEAN_MOTION_DDOT": 0}, "tle": {"line1": "1 54031U 22130A   25347.10083282 -.00000062  00000+0  00000+0 0  9993", "line2": "2 54031  64.3821 321.1284 0011797 192.3956 167.5755  2.13101359 24726"}}, "geometry": {"type": "Point", "coordinates": [162.87704873896215, -37.726596291586695]}}, {"type": "Feature", "properties": {"norad_id": 54377, "name": "COSMOS 2564 (761)", "group": "glo-ops", "lat": -16.051777938062266, "lon": -168.94336192476217, "alt_km": 19148.606178701204, "timestamp": "2025-12-13T20:38:51.265805+00:00", "meta": {"OBJECT_NAME": "COSMOS 2564 (761)", "OBJECT_ID": "2022-161A", "EPOCH": "2025-12-12T22:40:51.156192", "MEAN_MOTION": 2.13102087, "ECCENTRICITY": 0.00086012, "INCLINATION": 64.7382, "RA_OF_ASC_NODE": 198.8921, "ARG_OF_PERICENTER": 204.7149, "MEAN_ANOMALY": 155.3163, "EPHEMERIS_TYPE": 0, "CLASSIFICATION_TYPE": "U", "NORAD_CAT_ID": 54377, "ELEMENT_SET_NO": 999, "REV_AT_EPOCH": 2366, "BSTAR": 0, "MEAN_MOTION_DOT": 7.5e-07, "MEAN_MOTION_DDOT": 0}, "tle": {"line1": "1 54377U 22161A   25346.94503653  .00000075  00000+0  00000+0 0  9993", "line2": "2 54377  64.7382 198.8921 0008601 204.7149 155.3163  2.13102087 23663"}}, "geometry": {"type": "Point", "coordinates": [-168.94336192476217, -16.051777938062266]}}, {"type": "Feature", "properties": {"norad_id": 57517, "name": "COSMOS 2569 (703K)", "group": "glo-ops", "lat": -25.324437544039448, "lon": 66.25757026125873, "alt_km": 19114.402579262864, "timestamp": "2025-12-13T20:38:51.265816+00:00", "meta": {"OBJECT_NAME": "COSMOS 2569 (703K)", "OBJECT_ID": "2023-114A", "EPOCH": "2025-12-11T01:57:11.687328", "MEAN_MOTION": 2.13103934, "ECCENTRICITY": 0.0010485, "INCLINATION": 65.1933, "RA_OF_ASC_NODE": 78.9695, "ARG_OF_PERICENTER": 287.0346, "MEAN_ANOMALY": 72.8683, "EPHEMERIS_TYPE": 0, "CLASSIFICATION_TYPE": "U", "NORAD_CAT_ID": 57517, "ELEMENT_SET_NO": 999, "REV_AT_EPOCH": 1825, "BSTAR": 0, "MEAN_MOTION_DOT": -2.7e-07, "MEAN_MOTION_DDOT": 0}, "tle": {"line1": "1 57517U 23114A   25345.08138527 -.00000027  00000+0  00000+0 0  9997", "line2": "2 57517  65.1933  78.9695 0010485 287.0346  72.8683  2.13103934 18252"}}, "geometry": {"type": "Point", "coordinates": [66.25757026125873, -25.324437544039448]}}, {"type": "Feature", "properties": {"norad_id": 63130, "name": "COSMOS 2584 (704K)", "group": "glo-ops", "lat": 50.85726434174144, "lon": 114.07491189888319, "alt_km": 19142.17143809227, "timestamp": "2025-12-13T20:38:51.265827+00:00", "meta": {"OBJECT_NAME": "COSMOS 2584 (704K)", "OBJECT_ID": "2025-042A", "EPOCH": "2025-12-11T21:45:20.522592", "MEAN_MOTION": 2.13103011, "ECCENTRICITY": 0.00076483, "INCLINATION": 64.9756, "RA_OF_ASC_NODE": 79.1743, "ARG_OF_PERICENTER": 217.1196, "MEAN_ANOMALY": 142.8438, "EPHEMERIS_TYPE": 0, "CLASSIFICATION_TYPE": "U", "NORAD_CAT_ID": 63130, "ELEMENT_SET_NO": 999, "REV_AT_EPOCH": 605, "BSTAR": 0, "MEAN_MOTION_DOT": -3.5e-07, "MEAN_MOTION_DDOT": 0}, "tle": {"line1": "1 63130U 25042A   25345.90648753 -.00000035  00000+0  00000+0 0  9994", "line2": "2 63130  64.9756  79.1743 0007648 217.1196 142.8438  2.13103011  6058"}}, "geometry": {"type": "Point", "coordinates": [114.07491189888319, 50.85726434174144]}}, {"type": "Feature", "properties": {"norad_id": 65590, "name": "COSMOS 2596 (708K)", "group": "glo-ops", "lat": 2.4501224172045064, "lon": 140.2675360697426, "alt_km": 19152.758157965687, "timestamp": "2025-12-13T20:38:51.265838+00:00", "meta": {"OBJECT_NAME": "COSMOS 2596 (708K)", "OBJECT_ID": "2025-206B", "EPOCH": "2025-12-13T03:40:38.538048", "MEAN_MOTION": 2.13100493, "ECCENTRICITY": 0.00140265, "INCLINATION": 64.7439, "RA_OF_ASC_NODE": 321.4594, "ARG_OF_PERICENTER": 306.3445, "MEAN_ANOMALY": 48.5588, "EPHEMERIS_TYPE": 0, "CLASSIFICATION_TYPE": "U", "NORAD_CAT_ID": 65590, "ELEMENT_SET_NO": 999, "REV_AT_EPOCH": 194, "BSTAR": 0, "MEAN_MOTION_DOT": -6.1e-07, "MEAN_MOTION_DDOT": 0}, "tle": {"line1": "1 65590U 25206B   25347.15322382 -.00000061  00000+0  00000+0 0  9993", "line2": "2 65590  64.7439 321.4594 0014026 306.3445  48.5588  2.13100493  1941"}}, "geometry": {"type": "Point", "coordinates": [140.2675360697426, 2.4501224172045064]}}]}